C/2020 F5 (MASTER),h,03/24.0759/2021,51.7087,350.6128,311.0456,1.002948,4.326700,2000,6.5,3.2
# From MPEC 2020-L06
C/2020 F6 (PANSTARRS),e,174.5821,207.8857,344.6120,394.8939,0.0001256,0.99110872,0.0000,04/11.6718/2020,2000,g 14.5,2.8
# From MPEC 2020-L06
C/2020 F7 (Lemmon),e,93.9536,321.8868,227.9803,746.1429,0.0000484,0.99285401,0.0000,11/14.0773/2021,2000,g 12.0,2.0
# From MPEC 2020-KB7
C/2020 F8 (SWAN),e,110.7815,260.0005,68.2111,272.8999,0.0002186,0.99842356,0.0000,05/27.5758/2020,2000,g 10.0,4.0
# From MPEC 2020-L06
P/2020 G1 (Pimentel),e,18.4771,240.0936,207.6584,3.610620,0.1436585,0.85988726,57.9837,04/25.0/2021,2000,g 17.0,4.0
# From MPEC 2020-L06
C/2020 H2 (Pruyne),e,125.0373,277.6401,26.7045,189.1179,0.0003790,0.99559169,0.0000,04/27.6116/2020,2000,g 18.0,4.0
# From MPEC 2020-HM1
C/2020 H3 (Wierzchos),p,06/05.7162/2020,62.5292,30.4456,2.300288,270.6227,2000,13.5,4.0
# From MPEC 2020-L06
C/2020 H4 (Leonard),e,84.5147,307.7365,117.6042,48.15290,0.0029496,0.98074788,0.0000,08/29.5210/2020,2000,g 15.0,3.2
# From MPEC 2020-L06
C/2020 H5 (Robinson),e,70.2590,210.5939,325.0633,1060,0.0000286,0.99115915,0.0000,11/14.8146/2020,2000,g  5.0,4.0
# From MPEC 2020-L06
C/2020 H6 (ATLAS),h,09/30.9809/2021,79.9707,213.6975,20.3179,1.000863,4.704648,2000,8.0,3.2
# From MPEC 2020-KB7
C/2020 H7 (Lemmon),e,135.9235,323.5194,82.6780,1405,0.0000187,0.99685380,0.0000,06/02.9510/2020,2000,g 11.0,4.0
# From MPEC 2020-KB7
C/2020 H8 (PANSTARRS),p,06/06.7207/2020,99.7116,129.2192,4.678446,68.3225,2000,10.5,4.0
# From MPEC 2020-L06
A/2020 H9,e,137.8757,213.1266,312.8983,542.3374,0.0000780,0.99524396,0.0000,12/21.3815/2019,2000,g 18.0,2.0
# From MPEC 2020-L06
C/2020 J1 (SONEAR),e,142.2923,226.5922,341.7331,478.2113,0.0000942,0.99297395,0.0000,04/19.3999/2021,2000,g  8.5,3.2
# From MPEC 2020-L06
C/2020 K1 (PANSTARRS),h,05/08.0472/2023,89.6551,94.3602,213.9240,1.000862,3.073450,2000,5.5,4.0
# From MPEC 2020-KF5
C/2020 K2 (PANSTARRS),p,12/30.6730/2018,89.7510,34.2348,8.177098,285.5819,2000,6.5,4.0
# From MPEC 2020-KF9
C/2020 K3 (Leonard),p,06/01.0032/2020,129.0152,64.4924,1.583069,28.3546,2000,14.5,4.0
# From MPEC 2020-L06
C/2020 K4 (PANSTARRS),e,125.5637,264.0972,308.7721,23.87190,0.0084503,0.92656151,3.5261,04/25.0/2021,2000,g 16.5,4.0
# From MPEC 2020-L06
C/2020 K5 (PANSTARRS),h,06/05.5822/2021,67.1568,86.1613,249.5932,1.001585,1.535494,2000,11.0,4.0
# From MPEC 2020-L06
C/2020 K6 (Rankin),h,08/26.9613/2021,103.7914,291.5597,41.7420,1.000076,5.992293,2000,8.0,4.0
# From MPEC 2020-L09
C/2020 K7 (PANSTARRS),p,10/05.3027/2021,34.5520,60.8413,5.644571,287.4776,2000,8.0,4.0
# From MPEC 2021-BE3
C/2020 K8 (Catalina-ATLAS),h,09/14.5170/2020,31.4165,181.5213,260.0476,1.000241,0.474496,2000,15.0,3.2
# From MPEC 2021-BE3
P/2020 K9 (Lemmon-PANSTARRS),e,23.2098,166.2403,196.8839,4.199419,0.1145303,0.32146869,8.2635,04/25.0/2021,2000,g 12.5,4.0
# From MPEC 2020-K19
P/2020 M1 (PANSTARRS),e,8.6516,142.8836,68.3630,5.126156,0.0849212,0.48002600,41.5145,04/25.0/2021,2000,g 14.5,4.0
# From MPEC 2021-AJ0
C/2020 M3 (ATLAS),e,23.4725,71.2475,328.4504,26.85319,0.0070829,0.95277139,1.2846,04/25.0/2021,2000,g 14.5,4.0
# From MPEC 2021-BE3
C/2020 M3 (ATLAS),e,23.4725,71.2475,328.4504,26.85331,0.0070828,0.95277159,1.2846,04/25.0/2021,2000,g 14.5,4.0
# From MPEC 2020-K19
A/2020 M4,e,160.1260,348.6283,104.6493,7914,0.0000014,0.99924784,0.0000,11/23.9204/2020,2000,g 14.5,2.0
# From MPEC 2021-BE3
C/2020 M5 (ATLAS),e,93.2221,352.0962,126.3392,18742,0.0000004,0.99983970,0.0000,08/19.8832/2021,2000,g  9.0,4.0
# From MPEC 2021-BE3
C/2020 N1 (PANSTARRS),h,03/12.2274/2021,29.7033,279.9816,186.7702,1.000529,1.320710,2000,12.5,4.0
# From MPEC 2020-W26
C/2020 N2 (ATLAS),e,161.0340,257.0733,331.2097,108.2226,0.0008754,0.98342212,0.0000,08/23.6768/2020,2000,g 16.0,3.2
# From MPEC 2020-SI8
P/2020 O1 (Lemmon-PANSTARRS),e,5.2258,175.9766,104.5664,2.644678,0.2291632,0.11952816,81.8521,04/25.0/2021,2000,g 15.5,4.0
# From MPEC 2021-BE3
C/2020 O2 (Amaral),h,08/28.1407/2021,71.7520,256.7518,10.2305,1.002172,4.864523,2000,8.0,3.2
# From MPEC 2020-SI8
P/2020 O3 (PANSTARRS),e,8.4409,266.8548,81.5291,4.654852,0.0981398,0.10486656,8.3306,04/25.0/2021,2000,g 12.0,4.0
# From MPEC 2021-BE3
C/2020 P1 (NEOWISE),h,10/20.1789/2020,45.0577,53.5348,8.8936,1.000280,0.342127,2000,14.0,3.2
# From MPEC 2021-BE3
C/2020 P3 (ATLAS),e,61.8850,19.4876,82.2473,6351,0.0000019,0.99892733,0.0000,04/20.8723/2021,2000,g  6.0,4.0
# From MPEC 2021-BE3
C/2020 Q1 (Borisov),e,142.9206,52.4016,9.9030,59.25182,0.0021610,0.97780720,0.0000,08/14.6580/2020,2000,g 14.0,4.0
# From MPEC 2021-BE3
C/2020 R2 (PANSTARRS),e,53.2228,195.0925,211.6977,408.8890,0.0001192,0.98852384,0.0000,02/24.2375/2022,2000,g  9.0,4.0
# From MPEC 2021-BE3
C/2020 R4 (ATLAS),e,164.4629,323.2761,46.7267,95.92690,0.0010490,0.98927902,0.0000,03/01.9422/2021,2000,g 13.5,4.0
# From MPEC 2020-W26
P/2020 R5 (PANSTARRS),e,11.4540,272.9725,82.3639,4.980185,0.0886821,0.31458901,29.4022,04/25.0/2021,2000,g  9.5,6.0
# From MPEC 2020-W26
C/2020 R6 (Rankin),e,82.8219,12.1745,271.9558,564.2098,0.0000735,0.99445908,0.0000,09/10.2237/2019,2000,g 11.0,4.0
# From MPEC 2021-BE3
C/2020 R7 (ATLAS),e,114.8915,268.2781,347.8301,5936,0.0000022,0.99950200,0.0000,09/16.2600/2022,2000,g  7.0,3.2
# From MPEC 2021-BE3
P/2020 S1 (PANSTARRS),e,13.7340,129.4589,254.8881,5.980709,0.0673868,0.50719518,6.6053,04/25.0/2021,2000,g 14.0,4.0
# From MPEC 2021-BE3
C/2020 S2 (PANSTARRS),e,22.3975,197.6834,202.2713,10.18410,0.0303263,0.82756886,3.7620,04/25.0/2021,2000,g 17.0,4.0
# From MPEC 2021-BE3
C/2020 S3 (Erasmus),e,19.8631,222.9857,349.8887,188.3225,0.0003814,0.99788429,0.0000,12/12.6727/2020,2000,g 13.5,3.2
# From MPEC 2021-BE3
C/2020 S4 (PANSTARRS),e,20.5749,117.7121,21.0571,12531,0.0000007,0.99973120,0.0000,02/09.6178/2023,2000,g  8.5,3.2
# From MPEC 2021-BE3
P/2020 S5 (PANSTARRS),e,12.3540,315.9989,53.0350,4.049175,0.1209635,0.33842298,31.3952,04/25.0/2021,2000,g 14.5,4.0
# From MPEC 2021-BE3
P/2020 S6 (Leonard),e,15.4591,242.5686,176.6580,3.599555,0.1443215,0.47915223,21.9917,04/25.0/2021,2000,g 16.0,4.0
# From MPEC 2021-BE3
P/2020 S7 (PANSTARRS),e,16.0921,328.0187,40.4179,5.023020,0.0875501,0.41049423,13.8218,04/25.0/2021,2000,g 14.5,4.0
# From MPEC 2021-BE3
C/2020 S8 (Lemmon),e,108.5185,24.0519,160.3322,274.3137,0.0002169,0.99138249,0.0000,04/10.9287/2021,2000,g 12.5,4.0
# From MPEC 2021-BE3
C/2020 T2 (Palomar),e,27.8728,83.0487,150.3801,313.9481,0.0001772,0.99345523,0.0000,07/11.1429/2021,2000,g 11.0,3.2
# From MPEC 2021-BE3
P/2020 T3 (PANSTARRS),e,7.2955,74.0186,357.0416,3.517752,0.1493848,0.59161642,14.1217,04/25.0/2021,2000,g 18.0,3.2
# From MPEC 2021-BE3
C/2020 T4 (PANSTARRS),h,07/05.2436/2021,83.8169,50.6212,79.5997,1.000143,2.191973,2000,13.0,3.2
# From MPEC 2021-BE3
C/2020 T5 (Lemmon),e,66.6020,237.8614,90.2973,850.2330,0.0000398,0.99777819,0.0000,10/09.6270/2020,2000,g 16.0,4.0
# From MPEC 2021-BE3
P/2020 U2 (PANSTARRS),e,6.4211,342.8986,84.6518,3.777757,0.1342311,0.51059967,16.1466,04/25.0/2021,2000,g 18.0,4.0
# From MPEC 2021-BE3
C/2020 U3 (Rankin),e,30.1766,282.6794,124.2644,64.88073,0.0018860,0.96491741,0.1471,04/25.0/2021,2000,g 15.0,4.0
# From MPEC 2021-BE3
C/2020 U4 (PANSTARRS),h,04/07.7394/2022,167.0371,120.0203,69.5171,1.002265,5.353904,2000,7.0,4.0
# From MPEC 2021-BE3
C/2020 U5 (PANSTARRS),e,97.2780,107.3426,75.4097,23885,0.0000003,0.99984275,0.0000,04/27.8102/2022,2000,g  8.0,4.0
# From MPEC 2021-BE3
C/2020 V2 (ZTF),h,05/08.4686/2023,131.5971,212.3397,162.3860,1.001313,2.228095,2000,4.9,4.0
# From MPEC 2021-BE3
P/2020 V3 (PANSTARRS),e,23.0333,198.2852,249.2384,8.363315,0.0407508,0.25500259,3.1148,04/25.0/2021,2000,g  8.3,4.0
# From MPEC 2021-BE3
P/2020 V4 (Rankin),e,14.2435,203.5118,256.9982,9.339947,0.0345293,0.44875565,357.1001,04/25.0/2021,2000,g  9.0,4.0
# From MPEC 2021-BE3
P/2020 W1 (Rankin),e,10.7920,124.2590,264.8036,7.197285,0.0510447,0.26530806,19.6732,04/25.0/2021,2000,g 10.0,4.0
# From MPEC 2021-BE3
C/2020 W5 (Lemmon),h,11/30.1068/2020,88.5851,75.5108,24.4816,1.000988,3.364228,2000,15.0,4.0
# From MPEC 2021-BE3
P/2020 X1 (ATLAS),e,31.6742,56.0346,323.5422,4.521597,0.1025100,0.36448715,28.4457,04/25.0/2021,2000,g 13.0,4.0
# From MPEC 2021-BE3
C/2020 X2 (ATLAS),e,18.1911,105.4585,347.3503,16.38913,0.0148549,0.76640308,2.3789,04/25.0/2021,2000,g 10.6,4.0
# From MPEC 2021-BE3
C/2020 X4 (Leonard),e,80.4897,161.8969,139.5281,46.92689,0.0030660,0.88898550,0.5055,04/25.0/2021,2000,g  9.0,4.0
# From MPEC 2021-BE3
C/2020 Y2 (ATLAS),e,101.2853,26.5068,266.0978,1166,0.0000248,0.99731235,0.0000,06/17.7233/2022,2000,g  6.5,4.0
# From MPEC 2021-BE3
C/2020 Y3 (ATLAS),e,83.1046,191.4344,342.0943,166.0048,0.0004608,0.98795237,0.0000,12/03.5844/2020,2000,g 13.5,4.0
# From MPEC 2021-BE3
C/2021 A1 (Leonard),h,01/03.3065/2022,132.6862,255.8847,225.0908,1.000061,0.615154,2000,8.5,4.0
# From MPEC 2021-BE3
C/2021 A2 (NEOWISE),h,01/22.7060/2021,107.0290,125.2198,338.8868,1.001031,1.413505,2000,13.5,4.0
# From MPEC 2021-BE3
C/2021 A4 (NEOWISE),e,111.5846,307.0767,204.6252,45.36460,0.0032257,0.97474447,0.0000,03/19.9980/2021,2000,g 16.0,4.0
# From MPEC 2021-BE3
P/2021 A5 (PANSTARRS),e,18.1881,328.7678,61.0804,3.045884,0.1854104,0.13960808,30.5150,04/25.0/2021,2000,g 15.0,4.0
# From MPEC 2021-BE3
C/2021 A6 (PANSTARRS),e,75.5799,164.0866,351.2955,4352,0.0000034,0.99817742,0.0000,04/27.8347/2021,2000,g  7.0,4.0
# From MPEC 2021-BE3
C/2021 A7 (NEOWISE),e,78.1425,154.5383,356.0679,750.9376,0.0000479,0.99737856,0.0000,07/15.5014/2021,2000,g 10.0,4.0
# From MPEC 2021-BE3
C/2021 A9 (PANSTARRS),h,11/24.3803/2023,158.0896,314.7664,211.7371,1.036750,7.705057,2000,6.0,4.0
# From MPEC 2021-C25
C/2021 A10 (NEOWISE),e,151.5246,188.3495,82.2656,93.59454,0.0010885,0.98644642,0.0000,03/15.2629/2021,2000,g 19.0,4.0
# From MPEC 2021-BE3
C/2021 B2 (PANSTARRS),e,38.1383,120.4363,334.8715,441.0946,0.0001064,0.99428808,0.0000,05/04.0978/2021,2000,g 14.0,4.0
# From MPEC 2021-C16
